CCSDS_OMM_VERS = 2.0
CREATION_DATE  = 
ORIGINATOR     = 

OBJECT_NAME    = UNKNOWN
OBJECT_ID      = 
CENTER_NAME    = EARTH
REF_FRAME      = TEME
TIME_SYSTEM    = UTC
MEAN_ELEMENT_THEORY = SGP/SGP4

EPOCH          = 2025-12-15T08:31:33.002976
MEAN_MOTION    = 14.40352044
ECCENTRICITY   = .0007587
INCLINATION    = 71.0022
RA_OF_ASC_NODE = 21.7989
ARG_OF_PERICENTER = 238.9851
MEAN_ANOMALY   = 121.0540

EPHEMERIS_TYPE = 0
CLASSIFICATION_TYPE = U
NORAD_CAT_ID   = 81745
ELEMENT_SET_NO = 999
REV_AT_EPOCH   = 63012
BSTAR          = .61036E-3
MEAN_MOTION_DOT = .1888E-4
MEAN_MOTION_DDOT = 0

CCSDS_OMM_VERS = 2.0
CREATION_DATE  = 
ORIGINATOR     = 

OBJECT_NAME    = UNKNOWN
OBJECT_ID      = 
CENTER_NAME    = EARTH
REF_FRAME      = TEME
TIME_SYSTEM    = UTC
MEAN_ELEMENT_THEORY = SGP/SGP4

EPOCH          = 2025-12-15T02:16:05.938752
MEAN_MOTION    = 14.40880322
ECCENTRICITY   = .001633
INCLINATION    = 82.9194
RA_OF_ASC_NODE = 222.3330
ARG_OF_PERICENTER = 248.7940
MEAN_ANOMALY   = 111.1508

EPHEMERIS_TYPE = 0
CLASSIFICATION_TYPE = U
NORAD_CAT_ID   = 81775
ELEMENT_SET_NO = 999
REV_AT_EPOCH   = 62561
BSTAR          = .12307E-2
MEAN_MOTION_DOT = .3968E-4
MEAN_MOTION_DDOT = 0

CCSDS_OMM_VERS = 2.0
CREATION_DATE  = 
ORIGINATOR     = 

OBJECT_NAME    = UNKNOWN
OBJECT_ID      = 
CENTER_NAME    = EARTH
REF_FRAME      = TEME
TIME_SYSTEM    = UTC
MEAN_ELEMENT_THEORY = SGP/SGP4

EPOCH          = 2025-12-13T18:33:40.303296
MEAN_MOTION    = 9.34124482
ECCENTRICITY   = .1584627
INCLINATION    = 54.5575
RA_OF_ASC_NODE = 207.8960
ARG_OF_PERICENTER = 54.9656
MEAN_ANOMALY   = 318.9706

EPHEMERIS_TYPE = 0
CLASSIFICATION_TYPE = U
NORAD_CAT_ID   = 81779
ELEMENT_SET_NO = 999
REV_AT_EPOCH   = 48041
BSTAR          = .36606E+0
MEAN_MOTION_DOT = .7015E-4
MEAN_MOTION_DDOT = 0

CCSDS_OMM_VERS = 2.0
CREATION_DATE  = 
ORIGINATOR     = 

OBJECT_NAME    = UNKNOWN
OBJECT_ID      = 
CENTER_NAME    = EARTH
REF_FRAME      = TEME
TIME_SYSTEM    = UTC
MEAN_ELEMENT_THEORY = SGP/SGP4

EPOCH          = 2025-12-15T00:29:56.732064
MEAN_MOTION    = 13.10902396
ECCENTRICITY   = .089694
INCLINATION    = 65.8245
RA_OF_ASC_NODE = 90.7484
ARG_OF_PERICENTER = 281.3567
MEAN_ANOMALY   = 68.8115

EPHEMERIS_TYPE = 0
CLASSIFICATION_TYPE = U
NORAD_CAT_ID   = 81792
ELEMENT_SET_NO = 999
REV_AT_EPOCH   = 8033
BSTAR          = .60402E-3
MEAN_MOTION_DOT = .1661E-4
MEAN_MOTION_DDOT = 0

CCSDS_OMM_VERS = 2.0
CREATION_DATE  = 
ORIGINATOR     = 

OBJECT_NAME    = UNKNOWN
OBJECT_ID      = 
CENTER_NAME    = EARTH
REF_FRAME      = TEME
TIME_SYSTEM    = UTC
MEAN_ELEMENT_THEORY = SGP/SGP4

EPOCH          = 2025-12-14T00:45:25.163136
MEAN_MOTION    = 12.37676134
ECCENTRICITY   = .0292348
INCLINATION    = 103.8174
RA_OF_ASC_NODE = 259.8685
ARG_OF_PERICENTER = 248.6327
MEAN_ANOMALY   = 108.3298

EPHEMERIS_TYPE = 0
CLASSIFICATION_TYPE = U
NORAD_CAT_ID   = 81812
ELEMENT_SET_NO = 999
REV_AT_EPOCH   = 54072
BSTAR          = -.58267E-2
MEAN_MOTION_DOT = -.931E-5
MEAN_MOTION_DDOT = 0

CCSDS_OMM_VERS = 2.0
CREATION_DATE  = 
ORIGINATOR     = 

OBJECT_NAME    = UNKNOWN
OBJECT_ID      = 
CENTER_NAME    = EARTH
REF_FRAME      = TEME
TIME_SYSTEM    = UTC
MEAN_ELEMENT_THEORY = SGP/SGP4

EPOCH          = 2025-12-15T06:11:20.776704
MEAN_MOTION    = 13.89482400
ECCENTRICITY   = .0181577
INCLINATION    = 66.2374
RA_OF_ASC_NODE = 289.8451
ARG_OF_PERICENTER = 245.1464
MEAN_ANOMALY   = 113.0636

EPHEMERIS_TYPE = 0
CLASSIFICATION_TYPE = U
NORAD_CAT_ID   = 81816
ELEMENT_SET_NO = 999
REV_AT_EPOCH   = 60969
BSTAR          = .4946E-3
MEAN_MOTION_DOT = .609E-5
MEAN_MOTION_DDOT = 0

CCSDS_OMM_VERS = 2.0
CREATION_DATE  = 
ORIGINATOR     = 

OBJECT_NAME    = UNKNOWN
OBJECT_ID      = 
CENTER_NAME    = EARTH
REF_FRAME      = TEME
TIME_SYSTEM    = UTC
MEAN_ELEMENT_THEORY = SGP/SGP4

EPOCH          = 2025-12-11T05:11:47.834304
MEAN_MOTION    = 12.47649248
ECCENTRICITY   = .0035403
INCLINATION    = 102.1752
RA_OF_ASC_NODE = 82.3604
ARG_OF_PERICENTER = 125.3291
MEAN_ANOMALY   = 235.1094

EPHEMERIS_TYPE = 0
CLASSIFICATION_TYPE = U
NORAD_CAT_ID   = 81819
ELEMENT_SET_NO = 999
REV_AT_EPOCH   = 54782
BSTAR          = .89E-2
MEAN_MOTION_DOT = .1269E-4
MEAN_MOTION_DDOT = 0

CCSDS_OMM_VERS = 2.0
CREATION_DATE  = 
ORIGINATOR     = 

OBJECT_NAME    = UNKNOWN
OBJECT_ID      = 
CENTER_NAME    = EARTH
REF_FRAME      = TEME
TIME_SYSTEM    = UTC
MEAN_ELEMENT_THEORY = SGP/SGP4

EPOCH          = 2025-12-14T08:48:26.482752
MEAN_MOTION    = 14.35409612
ECCENTRICITY   = .0042531
INCLINATION    = 65.8431
RA_OF_ASC_NODE = 332.8648
ARG_OF_PERICENTER = 325.8712
MEAN_ANOMALY   = 33.9648

EPHEMERIS_TYPE = 0
CLASSIFICATION_TYPE = U
NORAD_CAT_ID   = 81824
ELEMENT_SET_NO = 999
REV_AT_EPOCH   = 62482
BSTAR          = .24008E-2
MEAN_MOTION_DOT = .6891E-4
MEAN_MOTION_DDOT = 0

CCSDS_OMM_VERS = 2.0
CREATION_DATE  = 
ORIGINATOR     = 

OBJECT_NAME    = UNKNOWN
OBJECT_ID      = 
CENTER_NAME    = EARTH
REF_FRAME      = TEME
TIME_SYSTEM    = UTC
MEAN_ELEMENT_THEORY = SGP/SGP4

EPOCH          = 2025-12-15T06:48:34.142400
MEAN_MOTION    = 12.93727398
ECCENTRICITY   = .002721
INCLINATION    = 90.2397
RA_OF_ASC_NODE = 2.9647
ARG_OF_PERICENTER = 19.9692
MEAN_ANOMALY   = 340.2485

EPHEMERIS_TYPE = 0
CLASSIFICATION_TYPE = U
NORAD_CAT_ID   = 81833
ELEMENT_SET_NO = 999
REV_AT_EPOCH   = 45284
BSTAR          = .83304E-3
MEAN_MOTION_DOT = .237E-5
MEAN_MOTION_DDOT = 0

CCSDS_OMM_VERS = 2.0
CREATION_DATE  = 
ORIGINATOR     = 

OBJECT_NAME    = UNKNOWN
OBJECT_ID      = 
CENTER_NAME    = EARTH
REF_FRAME      = TEME
TIME_SYSTEM    = UTC
MEAN_ELEMENT_THEORY = SGP/SGP4

EPOCH          = 2025-12-13T12:49:06.723840
MEAN_MOTION    = 14.32967951
ECCENTRICITY   = .0062221
INCLINATION    = 82.9089
RA_OF_ASC_NODE = 281.8792
ARG_OF_PERICENTER = 148.2436
MEAN_ANOMALY   = 212.2529

EPHEMERIS_TYPE = 0
CLASSIFICATION_TYPE = U
NORAD_CAT_ID   = 81844
ELEMENT_SET_NO = 999
REV_AT_EPOCH   = 62300
BSTAR          = .24714E-2
MEAN_MOTION_DOT = .6924E-4
MEAN_MOTION_DDOT = 0

CCSDS_OMM_VERS = 2.0
CREATION_DATE  = 
ORIGINATOR     = 

OBJECT_NAME    = UNKNOWN
OBJECT_ID      = 
CENTER_NAME    = EARTH
REF_FRAME      = TEME
TIME_SYSTEM    = UTC
MEAN_ELEMENT_THEORY = SGP/SGP4

EPOCH          = 2025-12-15T11:58:30.432576
MEAN_MOTION    = 14.85076795
ECCENTRICITY   = .0086741
INCLINATION    = 97.6742
RA_OF_ASC_NODE = 176.4115
ARG_OF_PERICENTER = 296.5161
MEAN_ANOMALY   = 91.5697

EPHEMERIS_TYPE = 0
CLASSIFICATION_TYPE = U
NORAD_CAT_ID   = 81845
ELEMENT_SET_NO = 999
REV_AT_EPOCH   = 64993
BSTAR          = .23445E-3
MEAN_MOTION_DOT = .2084E-4
MEAN_MOTION_DDOT = 0

CCSDS_OMM_VERS = 2.0
CREATION_DATE  = 
ORIGINATOR     = 

OBJECT_NAME    = UNKNOWN
OBJECT_ID      = 
CENTER_NAME    = EARTH
REF_FRAME      = TEME
TIME_SYSTEM    = UTC
MEAN_ELEMENT_THEORY = SGP/SGP4

EPOCH          = 2025-12-11T12:25:47.446464
MEAN_MOTION    = 13.32362233
ECCENTRICITY   = .0763209
INCLINATION    = 65.6702
RA_OF_ASC_NODE = 69.7208
ARG_OF_PERICENTER = 13.6554
MEAN_ANOMALY   = 348.3917

EPHEMERIS_TYPE = 0
CLASSIFICATION_TYPE = U
NORAD_CAT_ID   = 81864
ELEMENT_SET_NO = 999
REV_AT_EPOCH   = 55067
BSTAR          = .5251E-3
MEAN_MOTION_DOT = .1288E-4
MEAN_MOTION_DDOT = 0

