UNKNOWN                 
1 81745U          25349.35524309  .00001888  00000+0  61036-3 0  9992
2 81745  71.0022  21.7989 0007587 238.9851 121.0540 14.40352044630120
UNKNOWN                 
1 81775U          25349.09451318  .00003968  00000+0  12307-2 0  9992
2 81775  82.9194 222.3330 0016330 248.7940 111.1508 14.40880322625614
UNKNOWN                 
1 81779U          25347.77338314  .00007015  00000+0  36606+0 0  9991
2 81779  54.5575 207.8960 1584627  54.9656 318.9706  9.34124482480413
UNKNOWN                 
1 81792U          25349.02079551  .00001661  00000+0  60402-3 0  9997
2 81792  65.8245  90.7484 0896940 281.3567  68.8115 13.10902396 80336
UNKNOWN                 
1 81812U          25348.03154124 -.00000931  00000+0 -58267-2 0  9996
2 81812 103.8174 259.8685 0292348 248.6327 108.3298 12.37676134540728
UNKNOWN                 
1 81816U          25349.25787936  .00000609  00000+0  49460-3 0  9994
2 81816  66.2374 289.8451 0181577 245.1464 113.0636 13.89482400609695
UNKNOWN                 
1 81819U          25345.21652586  .00001269  00000+0  89000-2 0  9997
2 81819 102.1752  82.3604 0035403 125.3291 235.1094 12.47649248547825
UNKNOWN                 
1 81824U          25348.36697318  .00006891  00000+0  24008-2 0  9997
2 81824  65.8431 332.8648 0042531 325.8712  33.9648 14.35409612624829
UNKNOWN                 
1 81833U          25349.28372850  .00000237  00000+0  83304-3 0  9993
2 81833  90.2397   2.9647 0027210  19.9692 340.2485 12.93727398452841
UNKNOWN                 
1 81844U          25347.53410560  .00006924  00000+0  24714-2 0  9990
2 81844  82.9089 281.8792 0062221 148.2436 212.2529 14.32967951623002
UNKNOWN                 
1 81845U          25349.49896334  .00002084  00000+0  23445-3 0  9999
2 81845  97.6742 176.4115 0086741 296.5161  91.5697 14.85076795649934
UNKNOWN                 
1 81864U          25345.51791026  .00001288  00000+0  52510-3 0  9991
2 81864  65.6702  69.7208 0763209  13.6554 348.3917 13.32362233550674
